{
  "type": "FeatureCollection",
  "features": [
    {
      "type": "Feature",
      "properties": {
        "norad_id": 52912,
        "name": "GAOFEN-12 03",
        "group": "resource",
        "lat": 7.782788653962673,
        "lon": -118.23906082316698,
        "alt_km": 631.472597782611,
        "timestamp": "2025-12-21T16:47:54.386742+00:00",
        "meta_object_name": "GAOFEN-12 03",
        "meta_object_id": "2022-069A",
        "meta_epoch": "2025-12-21T13:31:01.193664",
        "meta_mean_motion": 14.79625351,
        "meta_eccentricity": 0.0001934,
        "meta_inclination": 97.8488,
        "meta_ra_of_asc_node": 242.7077,
        "meta_arg_of_pericenter": 51.7632,
        "meta_mean_anomaly": 308.3754,
        "meta_ephemeris_type": 0,
        "meta_classification_type": "U",
        "meta_norad_cat_id": 52912,
        "meta_element_set_no": 999,
        "meta_rev_at_epoch": 18834,
        "meta_bstar": 2.0988e-05,
        "meta_mean_motion_dot": 1.07e-06,
        "meta_mean_motion_ddot": 0,
        "tle_line1": "1 52912U 22069A   25355.56320826  .00000107  00000+0  20988-4 0  9998",
        "tle_line2": "2 52912  97.8488 242.7077 0001934  51.7632 308.3754 14.79625351188342"
      },
      "geometry": {
        "type": "Point",
        "coordinates": [
          -118.23906082316698,
          7.782788653962673
        ]
      }
    },
    {
      "type": "Feature",
      "properties": {
        "norad_id": 54754,
        "name": "SWOT",
        "group": "resource",
        "lat": -50.31619705711216,
        "lon": -100.46646912872238,
        "alt_km": 900.1263873584458,
        "timestamp": "2025-12-21T16:47:54.386752+00:00",
        "meta_object_name": "SWOT",
        "meta_object_id": "2022-173A",
        "meta_epoch": "2025-12-21T10:11:12.098112",
        "meta_mean_motion": 14.00168037,
        "meta_eccentricity": 3.62e-05,
        "meta_inclination": 77.6109,
        "meta_ra_of_asc_node": 275.2666,
        "meta_arg_of_pericenter": 87.2927,
        "meta_mean_anomaly": 272.8266,
        "meta_ephemeris_type": 0,
        "meta_classification_type": "U",
        "meta_norad_cat_id": 54754,
        "meta_element_set_no": 999,
        "meta_rev_at_epoch": 15427,
        "meta_bstar": 2.0449e-06,
        "meta_mean_motion_dot": 0,
        "meta_mean_motion_ddot": 0,
        "tle_line1": "1 54754U 22173A   25355.42444558  .00000000  00000+0  20449-5 0  9999",
        "tle_line2": "2 54754  77.6109 275.2666 0000362  87.2927 272.8266 14.00168037154279"
      },
      "geometry": {
        "type": "Point",
        "coordinates": [
          -100.46646912872238,
          -50.31619705711216
        ]
      }
    },
    {
      "type": "Feature",
      "properties": {
        "norad_id": 57654,
        "name": "GAOFEN-12 04",
        "group": "resource",
        "lat": -0.7801833859214771,
        "lon": 91.21285646025783,
        "alt_km": 633.5203759174501,
        "timestamp": "2025-12-21T16:47:54.386761+00:00",
        "meta_object_name": "GAOFEN-12 04",
        "meta_object_id": "2023-123A",
        "meta_epoch": "2025-12-21T12:44:19.770432",
        "meta_mean_motion": 14.7972326,
        "meta_eccentricity": 0.0001221,
        "meta_inclination": 97.9128,
        "meta_ra_of_asc_node": 271.1548,
        "meta_arg_of_pericenter": 77.5765,
        "meta_mean_anomaly": 282.5584,
        "meta_ephemeris_type": 0,
        "meta_classification_type": "U",
        "meta_norad_cat_id": 57654,
        "meta_element_set_no": 999,
        "meta_rev_at_epoch": 12635,
        "meta_bstar": 0.00014554,
        "meta_mean_motion_dot": 1.042e-05,
        "meta_mean_motion_ddot": 0,
        "tle_line1": "1 57654U 23123A   25355.53078438  .00001042  00000+0  14554-3 0  9994",
        "tle_line2": "2 57654  97.9128 271.1548 0001221  77.5765 282.5584 14.79723260126358"
      },
      "geometry": {
        "type": "Point",
        "coordinates": [
          91.21285646025783,
          -0.7801833859214771
        ]
      }
    },
    {
      "type": "Feature",
      "properties": {
        "norad_id": 59065,
        "name": "PARS 1",
        "group": "resource",
        "lat": 32.88850342365155,
        "lon": -38.03987846736122,
        "alt_km": 432.7845722637767,
        "timestamp": "2025-12-21T16:47:54.386772+00:00",
        "meta_object_name": "PARS 1",
        "meta_object_id": "2024-039Q",
        "meta_epoch": "2025-12-21T11:58:49.012896",
        "meta_mean_motion": 15.41158221,
        "meta_eccentricity": 0.0011967,
        "meta_inclination": 97.4644,
        "meta_ra_of_asc_node": 326.6186,
        "meta_arg_of_pericenter": 45.6065,
        "meta_mean_anomaly": 314.6159,
        "meta_ephemeris_type": 0,
        "meta_classification_type": "U",
        "meta_norad_cat_id": 59065,
        "meta_element_set_no": 999,
        "meta_rev_at_epoch": 10123,
        "meta_bstar": 0.00023452,
        "meta_mean_motion_dot": 9.657e-05,
        "meta_mean_motion_ddot": 0,
        "tle_line1": "1 59065U 24039Q   25355.49917839  .00009657  00000+0  23452-3 0  9998",
        "tle_line2": "2 59065  97.4644 326.6186 0011967  45.6065 314.6159 15.41158221101239"
      },
      "geometry": {
        "type": "Point",
        "coordinates": [
          -38.03987846736122,
          32.88850342365155
        ]
      }
    },
    {
      "type": "Feature",
      "properties": {
        "norad_id": 59371,
        "name": "RESURS-P 4",
        "group": "resource",
        "lat": -65.8552549468755,
        "lon": 105.33334514224528,
        "alt_km": 477.31744672115474,
        "timestamp": "2025-12-21T16:47:54.386782+00:00",
        "meta_object_name": "RESURS-P 4",
        "meta_object_id": "2024-061A",
        "meta_epoch": "2025-12-21T12:35:21.570144",
        "meta_mean_motion": 15.32149972,
        "meta_eccentricity": 9.56e-05,
        "meta_inclination": 97.256,
        "meta_ra_of_asc_node": 301.6748,
        "meta_arg_of_pericenter": 65.3587,
        "meta_mean_anomaly": 294.7755,
        "meta_ephemeris_type": 0,
        "meta_classification_type": "U",
        "meta_norad_cat_id": 59371,
        "meta_element_set_no": 999,
        "meta_rev_at_epoch": 9655,
        "meta_bstar": 0.00011029,
        "meta_mean_motion_dot": 3.347e-05,
        "meta_mean_motion_ddot": 0,
        "tle_line1": "1 59371U 24061A   25355.52455521  .00003347  00000+0  11029-3 0  9999",
        "tle_line2": "2 59371  97.2560 301.6748 0000956  65.3587 294.7755 15.32149972 96556"
      },
      "geometry": {
        "type": "Point",
        "coordinates": [
          105.33334514224528,
          -65.8552549468755
        ]
      }
    },
    {
      "type": "Feature",
      "properties": {
        "norad_id": 59625,
        "name": "LEGION 1",
        "group": "resource",
        "lat": -30.05223280595351,
        "lon": 74.64574037345994,
        "alt_km": 520.775503277182,
        "timestamp": "2025-12-21T16:47:54.386812+00:00",
        "meta_object_name": "LEGION 1",
        "meta_object_id": "2024-081A",
        "meta_epoch": "2025-12-21T10:35:51.965088",
        "meta_mean_motion": 15.16557169,
        "meta_eccentricity": 0.0003627,
        "meta_inclination": 97.5205,
        "meta_ra_of_asc_node": 70.006,
        "meta_arg_of_pericenter": 277.6054,
        "meta_mean_anomaly": 82.4767,
        "meta_ephemeris_type": 0,
        "meta_classification_type": "U",
        "meta_norad_cat_id": 59625,
        "meta_element_set_no": 999,
        "meta_rev_at_epoch": 9059,
        "meta_bstar": 0.00020113,
        "meta_mean_motion_dot": 3.857e-05,
        "meta_mean_motion_ddot": 0,
        "tle_line1": "1 59625U 24081A   25355.44157367  .00003857  00000+0  20113-3 0  9991",
        "tle_line2": "2 59625  97.5205  70.0060 0003627 277.6054  82.4767 15.16557169 90592"
      },
      "geometry": {
        "type": "Point",
        "coordinates": [
          74.64574037345994,
          -30.05223280595351
        ]
      }
    },
    {
      "type": "Feature",
      "properties": {
        "norad_id": 59626,
        "name": "LEGION 2",
        "group": "resource",
        "lat": 29.762485472276637,
        "lon": -105.31717403742394,
        "alt_km": 515.7987338638832,
        "timestamp": "2025-12-21T16:47:54.386826+00:00",
        "meta_object_name": "LEGION 2",
        "meta_object_id": "2024-081B",
        "meta_epoch": "2025-12-21T11:23:19.389408",
        "meta_mean_motion": 15.16571592,
        "meta_eccentricity": 0.0005656,
        "meta_inclination": 97.5209,
        "meta_ra_of_asc_node": 70.1266,
        "meta_arg_of_pericenter": 255.6629,
        "meta_mean_anomaly": 104.3976,
        "meta_ephemeris_type": 0,
        "meta_classification_type": "U",
        "meta_norad_cat_id": 59626,
        "meta_element_set_no": 999,
        "meta_rev_at_epoch": 9060,
        "meta_bstar": 0.00019771,
        "meta_mean_motion_dot": 3.793e-05,
        "meta_mean_motion_ddot": 0,
        "tle_line1": "1 59626U 24081B   25355.47452997  .00003793  00000+0  19771-3 0  9999",
        "tle_line2": "2 59626  97.5209  70.1266 0005656 255.6629 104.3976 15.16571592 90608"
      },
      "geometry": {
        "type": "Point",
        "coordinates": [
          -105.31717403742394,
          29.762485472276637
        ]
      }
    }
  ]
}